ORBCOMM FM33 [-]        
1 25983U 99065D   24097.85702671  .00001115  00000+0  41605-3 0  9990
2 25983  45.0285 269.3529 0007803  29.2311 110.8701 14.37497108273223
ORBCOMM FM36 [-]        
1 25984U 99065E   24097.95899921  .00001030  00000+0  40468-3 0  9999
2 25984  45.0414 353.7948 0003443 279.0055  81.0403 14.35371654271688
ORBCOMM FM35 [+]        
1 25985U 99065F   24097.85221854  .00000939  00000+0  37593-3 0  9995
2 25985  45.0415 356.8425 0003859   9.3636 350.7283 14.34990193272063
ORBCOMM FM34 [-]        
1 25986U 99065G   24097.82182344  .00000967  00000+0  38609-3 0  9993
2 25986  45.0410 357.5131 0004271 322.3565  37.6984 14.34950876272174
ORBCOMM FM38 [-]        
1 33060U 08031A   24097.47943418  .00002055  00000+0  31568-3 0  9993
2 33060  48.4400 229.9442 0005761 320.6732  39.3762 14.77252933850093
ORBCOMM FM41 [-]        
1 33061U 08031B   24097.65670692  .00001963  00000+0  30478-3 0  9991
2 33061  48.4431 235.6459 0005036 307.1798  66.4459 14.76986486849624
ORBCOMM FM29 [-]        
1 33062U 08031C   24097.80368926  .00002127  00000+0  32837-3 0  9997
2 33062  48.4385 242.9830 0006836 307.9605 198.2889 14.76906814849551
ORBCOMM FM39 [-]        
1 33063U 08031D   24097.71926278  .00001764  00000+0  28343-3 0  9991
2 33063  48.4395 263.6492 0007876 285.3150  74.6893 14.75945890849240
